ONEWEB-0012             
1 44057U 19010A   25242.10882483  .00000174  00000+0  42208-3 0  9990
2 44057  87.8998 286.8201 0002266  87.2331 272.9060 13.16593513313266
ONEWEB-0010             
1 44058U 19010B   25242.13416078 -.00000029  00000+0 -10888-3 0  9997
2 44058  87.8999 286.7979 0001537  89.1537 270.9770 13.16593502313318
ONEWEB-0008             
1 44059U 19010C   25242.08348299  .00000022  00000+0  23998-4 0  9999
2 44059  87.8997 286.8060 0002053  99.3990 260.7373 13.16595516313424
ONEWEB-0007             
1 44060U 19010D   25241.96342108  .00000235  00000+0  59058-3 0  9991
2 44060  87.9063 317.3315 0001768  87.8642 272.2690 13.15548930313081
ONEWEB-0006             
1 44061U 19010E   25242.11948538  .00000189  00000+0  46883-3 0  9999
2 44061  87.9060 317.2411 0001687  92.0896 268.0427 13.15547753313155
ONEWEB-0011             
1 44062U 19010F   25242.16387248 -.00000107  00000+0 -31938-3 0  9997
2 44062  87.9065 317.2439 0001779 104.3028 255.8300 13.15548920313158
ONEWEB-0013             
1 45131U 20008A   25242.11828714 -.00000438  00000+0 -13075-2 0  9995
2 45131  87.8504 111.6112 0002639  72.5732 287.5684 13.09427931267977
ONEWEB-0017             
1 45132U 20008B   25242.07764990 -.00000619  00000+0 -18090-2 0  9999
2 45132  87.8755  94.3352 0001384  80.4762 279.6522 13.10375761269820
ONEWEB-0020             
1 45133U 20008C   25242.12412434  .00000569  00000+0  15933-2 0  9994
2 45133  87.8753  94.3094 0001644  89.7520 270.3796 13.10373689270229
ONEWEB-0021             
1 45134U 20008D   25242.06270411 -.00000031  00000+0 -12502-3 0  9991
2 45134  87.8752  94.3559 0001649  79.3143 280.8170 13.10368683270529
ONEWEB-0023             
1 45136U 20008F   25242.07349205 -.00000514  00000+0 -15084-2 0  9995
2 45136  87.8751  94.3362 0001862  88.6623 271.4718 13.10371634269954
ONEWEB-0024             
1 45137U 20008G   25242.12248299  .00000701  00000+0  19721-2 0  9991
2 45137  87.8763  94.2763 0001602  80.7431 279.3878 13.10370779270128
ONEWEB-0025             
1 45138U 20008H   25242.06354954 -.00000026  00000+0 -10962-3 0  9992
2 45138  87.8768  94.2981 0002212  75.5156 284.6217 13.10369460270446
ONEWEB-0026             
1 45139U 20008J   25242.08638699  .00000373  00000+0  10168-2 0  9996
2 45139  87.8776  79.0696 0001501  89.2361 270.8939 13.11414119272959
ONEWEB-0028             
1 45140U 20008K   25242.11944192 -.00000559  00000+0 -16126-2 0  9998
2 45140  87.8775  79.0836 0002288  78.3088 281.8296 13.11416792270476
ONEWEB-0032             
1 45141U 20008L   25242.07930166 -.00000658  00000+0 -19216-2 0  9993
2 45141  87.8750  94.3362 0001792  80.9190 279.2140 13.10368245270170
ONEWEB-0033             
1 45142U 20008M   25242.13077795  .00000410  00000+0  11392-2 0  9992
2 45142  87.8748  94.3375 0001459  82.8207 277.3086 13.10368836270097
