[{"OBJECT_NAME":"ONEWEB-0012","OBJECT_ID":"2019-010A","EPOCH":"2025-08-30T02:36:42.465312","MEAN_MOTION":13.16593513,"ECCENTRICITY":0.00022669,"INCLINATION":87.8998,"RA_OF_ASC_NODE":286.8201,"ARG_OF_PERICENTER":87.2331,"MEAN_ANOMALY":272.906,"EPHEMERIS_TYPE":0,"CLASSIFICATION_TYPE":"U","NORAD_CAT_ID":44057,"ELEMENT_SET_NO":999,"REV_AT_EPOCH":31326,"BSTAR":0.00042207883,"MEAN_MOTION_DOT":1.74e-6,"MEAN_MOTION_DDOT":0},{"OBJECT_NAME":"ONEWEB-0010","OBJECT_ID":"2019-010B","EPOCH":"2025-08-30T03:13:11.491392","MEAN_MOTION":13.16593502,"ECCENTRICITY":0.00015372,"INCLINATION":87.8999,"RA_OF_ASC_NODE":286.7979,"ARG_OF_PERICENTER":89.1537,"MEAN_ANOMALY":270.977,"EPHEMERIS_TYPE":0,"CLASSIFICATION_TYPE":"U","NORAD_CAT_ID":44058,"ELEMENT_SET_NO":999,"REV_AT_EPOCH":31331,"BSTAR":-0.0001088798,"MEAN_MOTION_DOT":-2.9e-7,"MEAN_MOTION_DDOT":0},{"OBJECT_NAME":"ONEWEB-0008","OBJECT_ID":"2019-010C","EPOCH":"2025-08-30T02:00:12.930336","MEAN_MOTION":13.16595516,"ECCENTRICITY":0.00020534,"INCLINATION":87.8997,"RA_OF_ASC_NODE":286.806,"ARG_OF_PERICENTER":99.399,"MEAN_ANOMALY":260.7373,"EPHEMERIS_TYPE":0,"CLASSIFICATION_TYPE":"U","NORAD_CAT_ID":44059,"ELEMENT_SET_NO":999,"REV_AT_EPOCH":31342,"BSTAR":2.399826e-5,"MEAN_MOTION_DOT":2.2e-7,"MEAN_MOTION_DDOT":0},{"OBJECT_NAME":"ONEWEB-0007","OBJECT_ID":"2019-010D","EPOCH":"2025-08-29T23:07:19.581312","MEAN_MOTION":13.1554893,"ECCENTRICITY":0.00017688,"INCLINATION":87.9063,"RA_OF_ASC_NODE":317.3315,"ARG_OF_PERICENTER":87.8642,"MEAN_ANOMALY":272.269,"EPHEMERIS_TYPE":0,"CLASSIFICATION_TYPE":"U","NORAD_CAT_ID":44060,"ELEMENT_SET_NO":999,"REV_AT_EPOCH":31308,"BSTAR":0.00059058239,"MEAN_MOTION_DOT":2.35e-6,"MEAN_MOTION_DDOT":0},{"OBJECT_NAME":"ONEWEB-0006","OBJECT_ID":"2019-010E","EPOCH":"2025-08-30T02:52:03.536832","MEAN_MOTION":13.15547753,"ECCENTRICITY":0.0001687,"INCLINATION":87.906,"RA_OF_ASC_NODE":317.2411,"ARG_OF_PERICENTER":92.0896,"MEAN_ANOMALY":268.0427,"EPHEMERIS_TYPE":0,"CLASSIFICATION_TYPE":"U","NORAD_CAT_ID":44061,"ELEMENT_SET_NO":999,"REV_AT_EPOCH":31315,"BSTAR":0.00046882594,"MEAN_MOTION_DOT":1.89e-6,"MEAN_MOTION_DDOT":0},{"OBJECT_NAME":"ONEWEB-0011","OBJECT_ID":"2019-010F","EPOCH":"2025-08-30T03:55:58.582272","MEAN_MOTION":13.1554892,"ECCENTRICITY":0.00017794,"INCLINATION":87.9065,"RA_OF_ASC_NODE":317.2439,"ARG_OF_PERICENTER":104.3028,"MEAN_ANOMALY":255.83,"EPHEMERIS_TYPE":0,"CLASSIFICATION_TYPE":"U","NORAD_CAT_ID":44062,"ELEMENT_SET_NO":999,"REV_AT_EPOCH":31315,"BSTAR":-0.00031937795,"MEAN_MOTION_DOT":-1.07e-6,"MEAN_MOTION_DDOT":0},{"OBJECT_NAME":"ONEWEB-0013","OBJECT_ID":"2020-008A","EPOCH":"2025-08-30T02:50:20.008896","MEAN_MOTION":13.09427931,"ECCENTRICITY":0.00026397,"INCLINATION":87.8504,"RA_OF_ASC_NODE":111.6112,"ARG_OF_PERICENTER":72.5732,"MEAN_ANOMALY":287.5684,"EPHEMERIS_TYPE":0,"CLASSIFICATION_TYPE":"U","NORAD_CAT_ID":45131,"ELEMENT_SET_NO":999,"REV_AT_EPOCH":26797,"BSTAR":-0.0013075275,"MEAN_MOTION_DOT":-4.38e-6,"MEAN_MOTION_DDOT":0},{"OBJECT_NAME":"ONEWEB-0017","OBJECT_ID":"2020-008B","EPOCH":"2025-08-30T01:51:48.951360","MEAN_MOTION":13.10375761,"ECCENTRICITY":0.00013842,"INCLINATION":87.8755,"RA_OF_ASC_NODE":94.3352,"ARG_OF_PERICENTER":80.4762,"MEAN_ANOMALY":279.6522,"EPHEMERIS_TYPE":0,"CLASSIFICATION_TYPE":"U","NORAD_CAT_ID":45132,"ELEMENT_SET_NO":999,"REV_AT_EPOCH":26982,"BSTAR":-0.0018090414,"MEAN_MOTION_DOT":-6.19e-6,"MEAN_MOTION_DDOT":0},{"OBJECT_NAME":"ONEWEB-0020","OBJECT_ID":"2020-008C","EPOCH":"2025-08-30T02:58:44.342976","MEAN_MOTION":13.10373689,"ECCENTRICITY":0.00016448,"INCLINATION":87.8753,"RA_OF_ASC_NODE":94.3094,"ARG_OF_PERICENTER":89.752,"MEAN_ANOMALY":270.3796,"EPHEMERIS_TYPE":0,"CLASSIFICATION_TYPE":"U","NORAD_CAT_ID":45133,"ELEMENT_SET_NO":999,"REV_AT_EPOCH":27022,"BSTAR":0.0015932827,"MEAN_MOTION_DOT":5.69e-6,"MEAN_MOTION_DDOT":0},{"OBJECT_NAME":"ONEWEB-0021","OBJECT_ID":"2020-008D","EPOCH":"2025-08-30T01:30:17.635104","MEAN_MOTION":13.10368683,"ECCENTRICITY":0.00016491,"INCLINATION":87.8752,"RA_OF_ASC_NODE":94.3559,"ARG_OF_PERICENTER":79.3143,"MEAN_ANOMALY":280.817,"EPHEMERIS_TYPE":0,"CLASSIFICATION_TYPE":"U","NORAD_CAT_ID":45134,"ELEMENT_SET_NO":999,"REV_AT_EPOCH":27052,"BSTAR":-0.00012501803,"MEAN_MOTION_DOT":-3.1e-7,"MEAN_MOTION_DDOT":0},{"OBJECT_NAME":"ONEWEB-0023","OBJECT_ID":"2020-008F","EPOCH":"2025-08-30T01:45:49.713120","MEAN_MOTION":13.10371634,"ECCENTRICITY":0.00018624,"INCLINATION":87.8751,"RA_OF_ASC_NODE":94.3362,"ARG_OF_PERICENTER":88.6623,"MEAN_ANOMALY":271.4718,"EPHEMERIS_TYPE":0,"CLASSIFICATION_TYPE":"U","NORAD_CAT_ID":45136,"ELEMENT_SET_NO":999,"REV_AT_EPOCH":26995,"BSTAR":-0.0015084123,"MEAN_MOTION_DOT":-5.14e-6,"MEAN_MOTION_DDOT":0},{"OBJECT_NAME":"ONEWEB-0024","OBJECT_ID":"2020-008G","EPOCH":"2025-08-30T02:56:22.530336","MEAN_MOTION":13.10370779,"ECCENTRICITY":0.00016022,"INCLINATION":87.8763,"RA_OF_ASC_NODE":94.2763,"ARG_OF_PERICENTER":80.7431,"MEAN_ANOMALY":279.3878,"EPHEMERIS_TYPE":0,"CLASSIFICATION_TYPE":"U","NORAD_CAT_ID":45137,"ELEMENT_SET_NO":999,"REV_AT_EPOCH":27012,"BSTAR":0.0019720669,"MEAN_MOTION_DOT":7.01e-6,"MEAN_MOTION_DDOT":0},{"OBJECT_NAME":"ONEWEB-0025","OBJECT_ID":"2020-008H","EPOCH":"2025-08-30T01:31:30.680256","MEAN_MOTION":13.1036946,"ECCENTRICITY":0.00022129,"INCLINATION":87.8768,"RA_OF_ASC_NODE":94.2981,"ARG_OF_PERICENTER":75.5156,"MEAN_ANOMALY":284.6217,"EPHEMERIS_TYPE":0,"CLASSIFICATION_TYPE":"U","NORAD_CAT_ID":45138,"ELEMENT_SET_NO":999,"REV_AT_EPOCH":27044,"BSTAR":-0.00010962101,"MEAN_MOTION_DOT":-2.6e-7,"MEAN_MOTION_DDOT":0},{"OBJECT_NAME":"ONEWEB-0026","OBJECT_ID":"2020-008J","EPOCH":"2025-08-30T02:04:23.835936","MEAN_MOTION":13.11414119,"ECCENTRICITY":0.00015015,"INCLINATION":87.8776,"RA_OF_ASC_NODE":79.0696,"ARG_OF_PERICENTER":89.2361,"MEAN_ANOMALY":270.8939,"EPHEMERIS_TYPE":0,"CLASSIFICATION_TYPE":"U","NORAD_CAT_ID":45139,"ELEMENT_SET_NO":999,"REV_AT_EPOCH":27295,"BSTAR":0.0010167535,"MEAN_MOTION_DOT":3.73e-6,"MEAN_MOTION_DDOT":0},{"OBJECT_NAME":"ONEWEB-0028","OBJECT_ID":"2020-008K","EPOCH":"2025-08-30T02:51:59.781888","MEAN_MOTION":13.11416792,"ECCENTRICITY":0.00022886,"INCLINATION":87.8775,"RA_OF_ASC_NODE":79.0836,"ARG_OF_PERICENTER":78.3088,"MEAN_ANOMALY":281.8296,"EPHEMERIS_TYPE":0,"CLASSIFICATION_TYPE":"U","NORAD_CAT_ID":45140,"ELEMENT_SET_NO":999,"REV_AT_EPOCH":27047,"BSTAR":-0.0016125982,"MEAN_MOTION_DOT":-5.59e-6,"MEAN_MOTION_DDOT":0},{"OBJECT_NAME":"ONEWEB-0032","OBJECT_ID":"2020-008L","EPOCH":"2025-08-30T01:54:11.663424","MEAN_MOTION":13.10368245,"ECCENTRICITY":0.00017924,"INCLINATION":87.875,"RA_OF_ASC_NODE":94.3362,"ARG_OF_PERICENTER":80.919,"MEAN_ANOMALY":279.214,"EPHEMERIS_TYPE":0,"CLASSIFICATION_TYPE":"U","NORAD_CAT_ID":45141,"ELEMENT_SET_NO":999,"REV_AT_EPOCH":27017,"BSTAR":-0.0019216232,"MEAN_MOTION_DOT":-6.58e-6,"MEAN_MOTION_DDOT":0},{"OBJECT_NAME":"ONEWEB-0033","OBJECT_ID":"2020-008M","EPOCH":"2025-08-30T03:08:19.214880","MEAN_MOTION":13.10368836,"ECCENTRICITY":0.0001459,"INCLINATION":87.8748,"RA_OF_ASC_NODE":94.3375,"ARG_OF_PERICENTER":82.8207,"MEAN_ANOMALY":277.3086,"EPHEMERIS_TYPE":0,"CLASSIFICATION_TYPE":"U","NORAD_CAT_ID":45142,"ELEMENT_SET_NO":999,"REV_AT_EPOCH":27009,"BSTAR":0.0011392313,"MEAN_MOTION_DOT":4.1e-6,"MEAN_MOTION_DDOT":0}]
